STARLINK-36719          
1 67648U 26022A   26054.55954678  .00517662  00000+0  32321-2 0  9998
2 67648  97.2832  87.8264 0002063  80.4239 279.7259 15.75428928  3326
STARLINK-36342          
1 67649U 26022B   26054.81296449  .00328396  00000+0  21165-2 0  9991
2 67649  97.2842  88.0937 0001804  74.1314 286.0150 15.75217494  3363
STARLINK-36703          
1 67650U 26022C   26054.55780782  .00436239  00000+0  27639-2 0  9990
2 67650  97.2838  87.8287 0001707  61.3330 298.8106 15.75314341  3320
STARLINK-36696          
1 67651U 26022D   26054.81013758  .00291302  00000+0  18790-2 0  9990
2 67651  97.2839  88.0976 0000593 347.4037  12.7214 15.75299764  3362
STARLINK-36699          
1 67652U 26022E   26054.80943094  .00297937  00000+0  19202-2 0  9994
2 67652  97.2839  88.0986 0003299  73.7450 286.4178 15.75299174  3362
STARLINK-36694          
1 67653U 26022F   26054.55320271  .00280407  00000+0  18165-2 0  9994
2 67653  97.2836  87.8352 0000676   2.2955 357.8313 15.75230797  3323
STARLINK-36620          
1 67654U 26022G   26054.80697184  .00244746  00000+0  15921-2 0  9996
2 67654  97.2838  88.1012 0003244  75.0967 285.0657 15.75231485  3360
STARLINK-36720          
1 67655U 26022H   26054.55108579  .00325442  00000+0  20959-2 0  9994
2 67655  97.2839  87.8378 0000601  34.6526 325.4778 15.75241893  3322
STARLINK-36688          
1 67656U 26022J   26054.55037388  .00268895  00000+0  17405-2 0  9994
2 67656  97.2840  87.8379 0001176 274.6341  85.4790 15.75282267  3322
STARLINK-36706          
1 67657U 26022K   26054.54896922  .00239832  00000+0  15631-2 0  9999
2 67657  97.2840  87.8390 0000701 102.2905 257.8438 15.75203638  3320
STARLINK-36701          
1 67658U 26022L   26054.54790480  .00250789  00000+0  16279-2 0  9995
2 67658  97.2839  87.8413 0001203 292.4562  67.6576 15.75267177  3322
STARLINK-36642          
1 67659U 26022M   26054.54685293  .00274341  00000+0  17794-2 0  9994
2 67659  97.2840  87.8434 0001068  71.6320 288.5061 15.75220461  3324
